start=new Date('2022-07-29T00:00:00.000Z').valueOf();
sats=[{"MEAN_ELEMENT_THEORY":"SGP4","TLE_LINE1":"1 47896U 21021AN  22209.79773739  .00001135  00000-0  95070-4 0  9992","RCS_SIZE":"LARGE","ARG_OF_PERICENTER":"72.5530","MEAN_ANOMALY":"287.5652","CENTER_NAME":"EARTH","INCLINATION":"53.0540","TIME_SYSTEM":"UTC","DECAY_DATE":null,"ECCENTRICITY":"0.00017730","COUNTRY_CODE":"US","MEAN_MOTION_DOT":"0.00001135","SEMIMAJOR_AXIS":"6925.341","OBJECT_TYPE":"PAYLOAD","LAUNCH_DATE":"2021-03-14","FILE":"3524113","CLASSIFICATION_TYPE":"U","TLE_LINE2":"2 47896  53.0540  91.8522 0001773  72.5530 287.5652 15.06402344 76995","REF_FRAME":"TEME","NORAD_CAT_ID":"47896","GP_ID":"209065522","ELEMENT_SET_NO":"999","MEAN_MOTION":"15.06402344","PERIAPSIS":"545.979","RA_OF_ASC_NODE":"91.8522","EPHEMERIS_TYPE":"0","PERIOD":"95.592","OBJECT_ID":"2021-021AN","OBJECT_NAME":"STARLINK-2356","APOAPSIS":"548.434","BSTAR":"0.00009507000000","SITE":"AFETR","EPOCH":"2022-07-28T19:08:44.510496","REV_AT_EPOCH":"7699","MEAN_MOTION_DDOT":"0.0000000000000"},{"APOAPSIS":"548.401","OBJECT_NAME":"STARLINK-2357","OBJECT_ID":"2021-021AP","BSTAR":"0.00010622000000","SITE":"AFETR","EPOCH":"2022-07-28T17:41:47.380416","REV_AT_EPOCH":"7725","MEAN_MOTION_DDOT":"0.0000000000000","GP_ID":"209065773","NORAD_CAT_ID":"47897","ELEMENT_SET_NO":"999","PERIAPSIS":"546.046","MEAN_MOTION":"15.06396831","RA_OF_ASC_NODE":"77.1058","PERIOD":"95.592","EPHEMERIS_TYPE":"0","INCLINATION":"53.0557","COUNTRY_CODE":"US","ECCENTRICITY":"0.00017000","TIME_SYSTEM":"UTC","DECAY_DATE":null,"MEAN_MOTION_DOT":"0.00001301","OBJECT_TYPE":"PAYLOAD","LAUNCH_DATE":"2021-03-14","SEMIMAJOR_AXIS":"6925.358","FILE":"3524113","CLASSIFICATION_TYPE":"U","REF_FRAME":"TEME","TLE_LINE2":"2 47897  53.0557  77.1058 0001700  77.6352 282.4827 15.06396831 77254","MEAN_ELEMENT_THEORY":"SGP4","TLE_LINE1":"1 47897U 21021AP  22209.73735394  .00001301  00000-0  10622-3 0  9996","RCS_SIZE":"LARGE","MEAN_ANOMALY":"282.4827","ARG_OF_PERICENTER":"77.6352","CENTER_NAME":"EARTH"},{"EPOCH":"2022-07-28T15:56:59.391456","SITE":"AFETR","MEAN_MOTION_DDOT":"0.0000000000000","REV_AT_EPOCH":"7718","APOAPSIS":"548.156","OBJECT_ID":"2021-021AQ","OBJECT_NAME":"STARLINK-2358","BSTAR":"0.00003509900000","RA_OF_ASC_NODE":"77.4526","MEAN_MOTION":"15.06394524","PERIAPSIS":"546.305","PERIOD":"95.592","EPHEMERIS_TYPE":"0","GP_ID":"209066024","NORAD_CAT_ID":"47898","ELEMENT_SET_NO":"999","OBJECT_TYPE":"PAYLOAD","LAUNCH_DATE":"2021-03-14","SEMIMAJOR_AXIS":"6925.365","MEAN_MOTION_DOT":"0.00000241","REF_FRAME":"TEME","TLE_LINE2":"2 47898  53.0544  77.4526 0001336  81.5333 278.5808 15.06394524 77186","FILE":"3524113","CLASSIFICATION_TYPE":"U","ECCENTRICITY":"0.00013360","COUNTRY_CODE":"US","DECAY_DATE":null,"TIME_SYSTEM":"UTC","INCLINATION":"53.0544","CENTER_NAME":"EARTH","MEAN_ANOMALY":"278.5808","ARG_OF_PERICENTER":"81.5333","RCS_SIZE":"LARGE","MEAN_ELEMENT_THEORY":"SGP4","TLE_LINE1":"1 47898U 21021AQ  22209.66457629  .00000241  00000-0  35099-4 0  9999"},{"TLE_LINE1":"1 47899U 21021AR  22209.59452449  .00000491  00000-0  51889-4 0  9999","MEAN_ELEMENT_THEORY":"SGP4","RCS_SIZE":"LARGE","ARG_OF_PERICENTER":"80.7870","MEAN_ANOMALY":"279.3325","CENTER_NAME":"EARTH","INCLINATION":"53.0540","TIME_SYSTEM":"UTC","DECAY_DATE":null,"COUNTRY_CODE":"US","ECCENTRICITY":"0.00018190","FILE":"3523691","CLASSIFICATION_TYPE":"U","TLE_LINE2":"2 47899  53.0540  67.7442 0001819  80.7870 279.3325 15.06395687 76896","REF_FRAME":"TEME","MEAN_MOTION_DOT":"0.00000491","SEMIMAJOR_AXIS":"6925.362","OBJECT_TYPE":"PAYLOAD","LAUNCH_DATE":"2021-03-14","ELEMENT_SET_NO":"999","NORAD_CAT_ID":"47899","GP_ID":"209034640","EPHEMERIS_TYPE":"0","PERIOD":"95.592","MEAN_MOTION":"15.06395687","PERIAPSIS":"545.967","RA_OF_ASC_NODE":"67.7442","BSTAR":"0.00005188900000","OBJECT_ID":"2021-021AR","OBJECT_NAME":"STARLINK-2359","APOAPSIS":"548.487","REV_AT_EPOCH":"7689","MEAN_MOTION_DDOT":"0.0000000000000","SITE":"AFETR","EPOCH":"2022-07-28T14:16:06.915936"},{"RCS_SIZE":"LARGE","TLE_LINE1":"1 47900U 21021AS  22209.68574485  .00001471  00000-0  11762-3 0  9991","MEAN_ELEMENT_THEORY":"SGP4","CENTER_NAME":"EARTH","MEAN_ANOMALY":"288.1523","ARG_OF_PERICENTER":"71.9635","COUNTRY_CODE":"US","ECCENTRICITY":"0.00015470","TIME_SYSTEM":"UTC","DECAY_DATE":null,"INCLINATION":"53.0541","REF_FRAME":"TEME","TLE_LINE2":"2 47900  53.0541  77.3561 0001547  71.9635 288.1523 15.06407394 77245","FILE":"3524113","CLASSIFICATION_TYPE":"U","OBJECT_TYPE":"PAYLOAD","LAUNCH_DATE":"2021-03-14","SEMIMAJOR_AXIS":"6925.326","MEAN_MOTION_DOT":"0.00001471","ELEMENT_SET_NO":"999","NORAD_CAT_ID":"47900","GP_ID":"209065022","PERIOD":"95.592","EPHEMERIS_TYPE":"0","RA_OF_ASC_NODE":"77.3561","MEAN_MOTION":"15.06407394","PERIAPSIS":"546.120","BSTAR":"0.00011762000000","APOAPSIS":"548.262","OBJECT_NAME":"STARLINK-2360","OBJECT_ID":"2021-021AS","MEAN_MOTION_DDOT":"0.0000000000000","REV_AT_EPOCH":"7724","EPOCH":"2022-07-28T16:27:28.355040","SITE":"AFETR"},{"APOAPSIS":"548.373","OBJECT_ID":"2021-021AT","OBJECT_NAME":"STARLINK-2361","BSTAR":"-0.00007382500000","SITE":"AFETR","EPOCH":"2022-07-28T18:48:10.740096","REV_AT_EPOCH":"7738","MEAN_MOTION_DDOT":"0.0000000000000","NORAD_CAT_ID":"47901","GP_ID":"209065273","ELEMENT_SET_NO":"999","MEAN_MOTION":"15.06396207","PERIAPSIS":"546.078","RA_OF_ASC_NODE":"67.0031","PERIOD":"95.592","EPHEMERIS_TYPE":"0","INCLINATION":"53.0559","ECCENTRICITY":"0.00016570","COUNTRY_CODE":"US","TIME_SYSTEM":"UTC","DECAY_DATE":null,"MEAN_MOTION_DOT":"-0.00001381","LAUNCH_DATE":"2021-03-14","OBJECT_TYPE":"PAYLOAD","SEMIMAJOR_AXIS":"6925.360","FILE":"3524113","CLASSIFICATION_TYPE":"U","REF_FRAME":"TEME","TLE_LINE2":"2 47901  53.0559  67.0031 0001657  82.4163 277.7014 15.06396207 77382","TLE_LINE1":"1 47901U 21021AT  22209.78345764 -.00001381  00000-0 -73825-4 0  9990","MEAN_ELEMENT_THEORY":"SGP4","RCS_SIZE":"LARGE","MEAN_ANOMALY":"277.7014","ARG_OF_PERICENTER":"82.4163","CENTER_NAME":"EARTH"},{"RCS_SIZE":"LARGE","MEAN_ELEMENT_THEORY":"SGP4","TLE_LINE1":"1 47902U 21021AU  22209.76688598  .00000874  00000-0  77593-4 0  9994","CENTER_NAME":"EARTH","ARG_OF_PERICENTER":"77.0579","MEAN_ANOMALY":"283.0571","DECAY_DATE":null,"TIME_SYSTEM":"UTC","ECCENTRICITY":"0.00014470","COUNTRY_CODE":"US","INCLINATION":"53.0552","TLE_LINE2":"2 47902  53.0552  86.9844 0001447  77.0579 283.0571 15.06387946 77216","REF_FRAME":"TEME","FILE":"3524113","CLASSIFICATION_TYPE":"U","SEMIMAJOR_AXIS":"6925.386","LAUNCH_DATE":"2021-03-14","OBJECT_TYPE":"PAYLOAD","MEAN_MOTION_DOT":"0.00000874","ELEMENT_SET_NO":"999","NORAD_CAT_ID":"47902","GP_ID":"209066525","EPHEMERIS_TYPE":"0","PERIOD":"95.593","RA_OF_ASC_NODE":"86.9844","MEAN_MOTION":"15.06387946","PERIAPSIS":"546.248","BSTAR":"0.00007759300000","OBJECT_ID":"2021-021AU","OBJECT_NAME":"STARLINK-2362","APOAPSIS":"548.253","MEAN_MOTION_DDOT":"0.0000000000000","REV_AT_EPOCH":"7721","EPOCH":"2022-07-28T18:24:18.948672","SITE":"AFETR"},{"CLASSIFICATION_TYPE":"U","FILE":"3524113","REF_FRAME":"TEME","TLE_LINE2":"2 47903  53.0544  67.7665 0001564  76.0938 284.0225 15.06408649 77709","MEAN_MOTION_DOT":"0.00001741","OBJECT_TYPE":"PAYLOAD","LAUNCH_DATE":"2021-03-14","SEMIMAJOR_AXIS":"6925.322","INCLINATION":"53.0544","COUNTRY_CODE":"US","ECCENTRICITY":"0.00015640","TIME_SYSTEM":"UTC","DECAY_DATE":null,"MEAN_ANOMALY":"284.0225","ARG_OF_PERICENTER":"76.0938","CENTER_NAME":"EARTH","TLE_LINE1":"1 47903U 21021AV  22209.59082989  .00001741  00000-0  13572-3 0  9998","MEAN_ELEMENT_THEORY":"SGP4","RCS_SIZE":"LARGE","REV_AT_EPOCH":"7770","MEAN_MOTION_DDOT":"0.0000000000000","SITE":"AFETR","EPOCH":"2022-07-28T14:10:47.702496","BSTAR":"0.00013572000000","APOAPSIS":"548.270","OBJECT_NAME":"STARLINK-2363","OBJECT_ID":"2021-021AV","PERIOD":"95.592","EPHEMERIS_TYPE":"0","MEAN_MOTION":"15.06408649","PERIAPSIS":"546.104","RA_OF_ASC_NODE":"67.7665","ELEMENT_SET_NO":"999","NORAD_CAT_ID":"47903","GP_ID":"209066773"},{"TLE_LINE1":"1 47904U 21021AW  22209.85348625  .00001266  00000-0  10386-3 0  9992","MEAN_ELEMENT_THEORY":"SGP4","RCS_SIZE":"LARGE","ARG_OF_PERICENTER":"94.5193","MEAN_ANOMALY":"265.5954","CENTER_NAME":"EARTH","INCLINATION":"53.0542","DECAY_DATE":null,"TIME_SYSTEM":"UTC","COUNTRY_CODE":"US","ECCENTRICITY":"0.00013840","MEAN_MOTION_DOT":"0.00001266","SEMIMAJOR_AXIS":"6925.334","LAUNCH_DATE":"2021-03-14","OBJECT_TYPE":"PAYLOAD","CLASSIFICATION_TYPE":"U","FILE":"3524113","TLE_LINE2":"2 47904  53.0542  66.6028 0001384  94.5193 265.5954 15.06404703 77381","REF_FRAME":"TEME","NORAD_CAT_ID":"47904","GP_ID":"209065523","ELEMENT_SET_NO":"999","MEAN_MOTION":"15.06404703","PERIAPSIS":"546.241","RA_OF_ASC_NODE":"66.6028","EPHEMERIS_TYPE":"0","PERIOD":"95.592","OBJECT_NAME":"STARLINK-2364","OBJECT_ID":"2021-021AW","APOAPSIS":"548.158","BSTAR":"0.00010386000000","SITE":"AFETR","EPOCH":"2022-07-28T20:29:01.212000","REV_AT_EPOCH":"7738","MEAN_MOTION_DDOT":"0.0000000000000"},{"MEAN_MOTION":"15.06408325","PERIAPSIS":"546.197","RA_OF_ASC_NODE":"66.9034","EPHEMERIS_TYPE":"0","PERIOD":"95.592","GP_ID":"209065774","NORAD_CAT_ID":"47905","ELEMENT_SET_NO":"999","SITE":"AFETR","EPOCH":"2022-07-28T18:46:47.864352","REV_AT_EPOCH":"7750","MEAN_MOTION_DDOT":"0.0000000000000","OBJECT_NAME":"STARLINK-2365","OBJECT_ID":"2021-021AX","APOAPSIS":"548.179","BSTAR":"0.00005197900000","ARG_OF_PERICENTER":"79.4276","MEAN_ANOMALY":"280.6874","CENTER_NAME":"EARTH","MEAN_ELEMENT_THEORY":"SGP4","TLE_LINE1":"1 47905U 21021AX  22209.78249843  .00000493  00000-0  51979-4 0  9992","RCS_SIZE":"LARGE","MEAN_MOTION_DOT":"0.00000493","SEMIMAJOR_AXIS":"6925.323","OBJECT_TYPE":"PAYLOAD","LAUNCH_DATE":"2021-03-14","FILE":"3524113","CLASSIFICATION_TYPE":"U","TLE_LINE2":"2 47905  53.0553  66.9034 0001431  79.4276 280.6874 15.06408325 77508","REF_FRAME":"TEME","INCLINATION":"53.0553","DECAY_DATE":null,"TIME_SYSTEM":"UTC","ECCENTRICITY":"0.00014310","COUNTRY_CODE":"US"}];
